#cP2022 10 11  0  0  0.00000000      96 ORBIT IGb14 HLM  IGS
## 2231 172800.00000000   900.00000000 59863 0.0000000000000
+   32   G01G02G03G04G05G06G07G08G09G10G11G12G13G14G15G16G17
+        G18G19G20G21G22G23G24G25G26G27G28G29G30G31G32  0  0
+          0  0  0  0  0  0  0  0  0  0  0  0  0  0  0  0  0
+          0  0  0  0  0  0  0  0  0  0  0  0  0  0  0  0  0
+          0  0  0  0  0  0  0  0  0  0  0  0  0  0  0  0  0
++         2  2  2  2  2  2  2  2  2  2  3  2  2  2  2  2  2
++         3  2  2  2  2  2  2  2  2  2  2  2  2  2  2  0  0
++         0  0  0  0  0  0  0  0  0  0  0  0  0  0  0  0  0
++         0  0  0  0  0  0  0  0  0  0  0  0  0  0  0  0  0
++         0  0  0  0  0  0  0  0  0  0  0  0  0  0  0  0  0
%c G  cc GPS ccc cccc cccc cccc cccc ccccc ccccc ccccc ccccc
%c cc cc ccc ccc cccc cccc cccc cccc ccccc ccccc ccccc ccccc
%f  1.2500000  1.025000000  0.00000000000  0.000000000000000
%f  0.0000000  0.000000000  0.00000000000  0.000000000000000
%i    0    0    0    0      0      0      0      0         0
%i    0    0    0    0      0      0      0      0         0
/* RAPID ORBIT COMBINATION FROM WEIGHTED AVERAGE OF:        
/* cod emr esa gfz jpl ngs sio usn whu                      
/* REFERENCED TO IGS TIME (IGST) AND TO WEIGHTED MEAN POLE: 
/* PCV:IGS14_2223 OL/AL:FES2004  NONE     Y  ORB:CMB CLK:CMB
*  2022 10 11 15 45  0.00000000
PG01 -13439.013928  22283.003392  -4614.947641    269.217937  3  6  7  81       
PG02  13569.409115 -22947.190263   1217.093145   -642.778144  9 10  5  83       
PG03 -11880.168057  12432.695948 -20337.433132   -363.273083  6  5  5 110       
PG04  -3750.917292  20954.409583 -15819.266103   -105.235010  7  9  4 104       
PG05  22169.493090  -7147.310769  12696.713615   -100.004973  5  9  4  91       
PG06  14976.213826   3772.273049 -21555.732339    488.145065  5  5  4 115       
PG07   -552.715343  20632.445002  16855.924877    299.720796  6  4  1 100       
PG08 -10399.690472  12432.003321  20931.718893    -88.401554  8  7  5  97       
PG09   6253.396986  24997.852790  -6429.704880   -284.611528  7  7  5  70       
PG10 -20143.083071 -11513.720216  13359.838843     -7.068170  4  5  5  79       
PG11  20130.581062  -6857.833927 -15885.480645    -24.726605  8  9  9 113       
PG12  12928.639587 -11712.691347 -20265.145971   -291.039110  4  8  7 109       
PG13  14524.860118  -3577.461384  21777.298781    404.112218  6  7  3 105       
PG14  18087.505823  13227.993978  14353.259473    -96.083218  7  7  6 109       
PG15   9157.095317 -13972.959855  20148.951910    -21.771227  5  7  3  83       
PG16 -25578.263073    -25.059378   7707.656724   -526.055998  3  6  9 108       
PG17  12731.241586  22094.119123  -6867.752318    667.738481  4  5  7  91       
PG18    264.335512 -19809.664358  17618.341733     18.305691  7  5  9 112       
PG19  15863.604312  14085.894150 -16376.247898    222.420128  7  6  4  82       
PG20  26419.261251   -741.083276   -469.476852    479.219243  5  8  4  99       
PG21 -17014.798881  19121.343693   6017.112647    158.173327  6  6  7 108       
PG22 -16396.552451 -11354.017460 -17208.868004    343.799552  8  7  5 118       
PG23 -10165.650639 -14551.584096  19788.448705     -0.933177  6  6  5 111       
PG24  14155.875588 -22192.274233    206.478326    103.729069  6  7  7  92       
PG25   -256.955572 -15564.445646 -21824.446882    381.300320  4  7  5  87       
PG26 -26332.153059  -3710.410159  -2862.391358    232.050571  4  7  7  74       
PG27 -15932.650270   -527.339218  21093.919934    199.660329  6  6  3  84       
PG28  23517.535392  10106.103576   7084.758808    330.257039  2  6  8 130       
PG29  -3227.158093 -25242.656849  -7496.609672   -558.822599  7  9  6  72       
PG30   9457.636005  13161.144578  21102.095899   -537.236488  6  5  6 107       
PG31 -16457.319836  -2970.783150 -20875.361466   -196.439597  5  7  7 119       
PG32 -15629.880162 -19367.060640  -9402.605160   -260.161915  7  6  7 104       
*  2022 10 11 16  0  0.00000000
PG01 -13791.184508  22435.432281  -1713.299858    269.212411  3  6  7  63       
PG02  13715.894859 -22753.001014  -1640.562192   -642.776942  9 10  5  85       
PG03 -14091.115270  12139.002980 -19045.163154   -363.276988  6  5  6 100       
PG04  -4652.679343  19252.896968 -17645.607045   -105.229557  6  8  5  92       
PG05  23493.620515  -6878.695577  10276.893162   -100.006311  4  9  4  84       
PG06  13548.557871   5824.206730 -22030.490573    488.155054  5  5  4 115       
PG07  -1746.453513  21954.949810  14901.260353    299.717375  6  4  2  81       
PG08 -11540.710097  10270.510172  21528.639136    -88.403263  8  7  5  76       
PG09   5636.226028  24320.241566  -9086.789015   -284.606988  7  7  5  95       
PG10 -18521.612683 -11514.335950  15525.510293     -7.069530  4  5  4  86       
PG11  19068.493765  -5246.826683 -17708.209969    -24.730384  8  6  8 122       
PG12  15078.612852 -11261.204732 -18968.141684   -291.042977  4  8  7  99       
PG13  15253.568214  -1172.313773  21558.292406    404.119078  7  6  3 110       
PG14  16323.780752  13202.691871  16343.156160    -96.079768  6  7  6 107       
PG15  10550.573706 -11958.623345  20767.875140    -21.768588  5  7  3  72       
PG16 -26281.164725   -351.450829   4988.389782   -526.056517  2  6  9 106       
PG17  12779.080541  22802.207100  -4067.638225    667.741583  5  4  7  98       
PG18   1514.126890 -21264.634897  15748.936957     18.293722  6  6  9 107       
PG19  16288.859167  15742.797454 -14310.190514    222.424521  7  6  4  87       
PG20  26224.770526   -408.324239  -3295.810526    479.216168  4  8  4 101       
PG21 -16861.408532  18296.323285   8745.911259    158.172729  5  6  7  95       
PG22 -16904.465447 -13221.000401 -15343.531258    343.805904  8  6  5 107       
PG23  -7843.715495 -14492.338622  20847.690717     -0.933411  6  6  4 106       
PG24  14357.218279 -21816.550955   3025.625134    103.716123  7  7  7  53       
PG25   2172.426208 -15362.541650 -21836.892189    381.303881  4  7  4  92       
PG26 -25852.771384  -3990.744714  -5594.320965    232.051790  3  8  7  88       
PG27 -16893.672558  -2723.675512  20201.623403    199.654881  6  6  3  78       
PG28  22584.361243  10168.823537   9745.440783    330.253094  4  6  8 121       
PG29  -2695.479916 -24369.285686 -10150.289521   -558.825030  7  9  7 101       
PG30   7999.149744  15031.065693  20419.897643   -537.236468  6  5  7 108       
PG31 -15073.278134  -4918.258490 -21506.111794   -196.440576  5  7  7 105       
PG32 -15823.211481 -20314.680078  -6767.463704   -260.172555  7  6  7 104       
*  2022 10 11 16 15  0.00000000
PG01 -13957.694166  22324.384603   1218.373867    269.206923  4  7  7  87       
PG02  13730.519821 -22277.757331  -4470.101393   -642.775489  8 10  5  90       
PG03 -16151.905265  11970.560025 -17427.375851   -363.280855  6  5  6 101       
PG04  -5725.570383  17431.035627 -19167.164244   -105.224113  6  8  5  98       
PG05  24544.416854  -6677.079126   7679.970215   -100.007868  4  9  5  80       
PG06  12221.121461   7981.367059 -22124.071022    488.164994  5  4  4 111       
PG07  -2752.902196  23139.536448  12691.099926    299.714075  7  6  3 102       
PG08 -12813.684446   8133.658036  21752.529325    -88.405556  8  7  5  93       
PG09   4842.623351  23421.218470 -11587.609069   -284.602352  7  7  5 100       
PG10 -16673.737255 -11598.739897  17430.234585     -7.070966  4  5  4  94       
PG11  17984.894424  -3426.832444 -19225.742674    -24.734014  9  3  8 125       
PG12  17088.996318 -10941.049487 -17350.560026   -291.047025  5  8  7 107       
PG13  16091.772456   1145.308024  20963.055051    404.125574  7  6  3 112       
PG14  14352.141367  13253.375314  18053.246320    -96.076359  6  7  7 106       
PG15  12062.748843  -9971.695518  21013.892186    -21.765711  4  7  3  87       
PG16 -26691.734715   -600.265566   2185.069031   -526.056928  1  5  9 106       
PG17  12732.365931  23210.633557  -1196.621830    667.744678  5  4  7  93       
PG18   2561.222197 -22593.358514  13606.814580     18.281717  5  8  8 118       
PG19  16712.022383  17147.439267 -12004.252672    222.428853  6  5  4  89       
PG20  25731.760185    -25.002349  -6064.607373    479.213290  4  8  5 112       
PG21 -16610.011714  17201.338459  11321.043336    158.172497  5  6  7 115       
PG22 -17417.342732 -14845.356168 -13208.727587    343.812045  8  6  5 106       
PG23  -5421.033268 -14557.984895  21548.761361     -0.933680  6  5  4 111       
PG24  14432.749257 -21165.320548   5791.057600    103.703226  7  8  7  70       
PG25   4592.853872 -15287.488740 -21483.064054    381.307461  4  7  3  79       
PG26 -25087.450830  -4302.736453  -8231.999886    232.052964  3  8  7  89       
PG27 -17911.332017  -4754.339542  18958.339465    199.649357  6  6  3  79       
PG28  21370.548145  10242.301228  12239.498575    330.249053  5  5  8 116       
PG29  -1998.535751 -23260.427875 -12628.804714   -558.828015  7  9  6 108       
PG30   6682.763869  16889.845834  19387.412010   -537.236452  7  6  7 106       
PG31 -13762.560564  -6980.740352 -21773.348178   -196.441910  5  7  7 120       
PG32 -15920.107924 -20983.081767  -4016.666519   -260.183233  6  7  7 120       
EOF
